233P/LaSagra,e,11.2890,74.9131,26.9638,3.027133,0.1871358,0.41308890,28.8110,06/11.0/2026,2000,g 15.0,4.0
# From MPC191614
234P/LINEAR,e,11.5332,179.5484,357.5091,3.799607,0.1330749,0.25755328,79.1857,06/11.0/2026,2000,g 12.0,4.0
# From MPEC 2026-L50
235P/LINEAR,e,9.8126,200.1684,352.2118,3.446235,0.1540589,0.42605819,26.2351,06/11.0/2026,2000,g 12.0,4.0
# From MPC191614
236P/LINEAR,e,16.3196,245.4102,119.5709,3.730171,0.1368078,0.51061745,67.2723,06/11.0/2026,2000,g 14.0,4.0
# From MPC191615
237P/LINEAR,e,13.9873,245.3447,25.5804,3.520928,0.1491827,0.43094984,167.9107,06/11.0/2026,2000,g 14.5,2.0
# From MPC191615
238P/Read,e,1.2634,51.6508,324.2177,3.168687,0.1747371,0.25021857,256.5124,06/11.0/2026,2000,g 14.5,4.0
# From MPC191615
239P/LINEAR,e,11.3043,255.9053,220.4497,4.461966,0.1045718,0.63163120,282.8543,06/11.0/2026,2000,g 17.5,2.0
# From MPEC 2026-L50
240P/NEAT,e,23.5313,74.9043,352.0768,3.863428,0.1297911,0.45087268,22.4612,06/11.0/2026,2000,g 11.0,4.0
# From MPEC 2026-L50
240P-B/NEAT,e,23.5307,74.9043,352.0702,3.862990,0.1298131,0.45080645,22.4610,06/11.0/2026,2000,g 15.5,4.0
# From MPC191615
241P/LINEAR,e,21.0947,305.3591,111.6994,4.929742,0.0900467,0.60961452,160.3967,06/11.0/2026,2000,g 13.5,4.0
# From MPEC 2026-J34
242P/Spahr,e,32.4533,180.1141,245.0988,5.536110,0.0756654,0.28251874,40.4548,06/11.0/2026,2000,g  8.0,4.0
# From MPEC 2026-J11
243P/NEAT,e,7.6445,87.5737,283.7941,3.824816,0.1317614,0.35996909,13.8867,06/11.0/2026,2000,g 12.5,4.0
# From MPC191615
244P/Scotti,e,2.2569,353.9950,93.6881,4.907594,0.0906570,0.19951059,117.6866,06/11.0/2026,2000,g  9.0,4.0
# From MPC191615
245P/WISE,e,21.1713,316.6652,316.6937,4.054683,0.1207171,0.45603128,8.6778,06/11.0/2026,2000,g 14.0,4.0
# From MPC191616
246P/NEAT,e,17.1387,73.7928,184.6258,4.342424,0.1089195,0.20870076,225.1830,06/11.0/2026,2000,g 10.5,4.0
# From MPC191616
247P/LINEAR,e,13.6599,53.9944,47.5321,3.961873,0.1249836,0.62557275,342.8795,06/11.0/2026,2000,g 16.5,2.0
# From MPEC 2026-GD5
248P/Gibbs,e,6.3516,207.7227,210.0245,5.991504,0.0672048,0.64002109,18.0850,06/11.0/2026,2000,g 14.0,4.0
# From MPC191616
249P/LINEAR,e,8.2703,238.2055,66.7565,2.775385,0.2131666,0.81866784,105.3288,06/11.0/2026,2000,g 15.5,4.0
# From MPEC 2026-KB8
250P/Larson,e,13.1515,73.3016,45.7209,3.775861,0.1343322,0.39809338,52.4248,06/11.0/2026,2000,g 14.5,4.0
# From MPC191616
251P/LINEAR,e,23.3934,219.3373,31.1511,3.510593,0.1498420,0.50421630,127.2190,06/11.0/2026,2000,g 16.5,2.0
# From MPC191616
252P/LINEAR,e,10.4204,190.9058,343.3656,3.052150,0.1848397,0.67121529,332.3170,06/11.0/2026,2000,g 17.5,4.0
# From MPC191616
253P/PANSTARRS,e,4.9555,146.7890,230.6346,3.460224,0.1531256,0.41623038,91.5733,06/11.0/2026,2000,g 14.5,4.0
# From MPC194203
254P/McNaught,e,32.5354,129.1740,219.6568,4.621223,0.0992130,0.31821081,206.7208,06/11.0/2026,2000,g 11.0,4.0
# From MPC191617
256P/LINEAR,e,27.6225,81.2990,124.0416,4.633308,0.0988251,0.41841611,117.2810,06/11.0/2026,2000,g 14.0,2.0
# From MPC191617
257P/Catalina,e,20.2116,207.7338,117.6679,3.769477,0.1346736,0.42869458,283.2974,06/11.0/2026,2000,g 11.5,4.0
# From MPC191617
258P/PANSTARRS,e,6.7510,126.2335,25.7263,4.386424,0.1072848,0.21002135,233.9439,06/11.0/2026,2000,g 13.0,4.0
# From MPC191617
259P/Garradd,e,15.8955,51.4348,257.3727,2.730141,0.2184874,0.33880212,346.4641,06/11.0/2026,2000,g 15.5,4.0
# From MPEC 2026-L50
260P/McNaught,e,15.0394,349.2712,18.5142,3.623268,0.1429070,0.60864977,352.1388,06/11.0/2026,2000,g 13.5,4.0
# From MPC194203
261P/Larson,e,6.0734,291.0495,67.3716,3.488306,0.1512802,0.42257333,25.0490,06/11.0/2026,2000,g 14.0,4.0
# From MPC191617
264P/Larsen,e,25.5378,218.9203,341.4879,4.037838,0.1214733,0.33691005,325.3730,06/11.0/2026,2000,g 13.0,4.0
# From MPC191617
265P/LINEAR,e,14.3290,342.8665,33.6052,4.262282,0.1120059,0.64620920,218.3465,06/11.0/2026,2000,g 14.5,4.0
# From MPC191618
266P/Christensen,e,3.4285,4.9832,97.8334,3.527564,0.1487619,0.34068609,333.2332,06/11.0/2026,2000,g 12.5,4.0
# From MPEC 2026-HH0
268P/Bernardi,e,15.6613,125.6278,0.0774,4.593451,0.1001142,0.47453755,53.9996,06/11.0/2026,2000,g 14.0,4.0
# From MPC191618
269P/Jedicke,e,7.0818,241.7327,225.8265,7.056122,0.0525842,0.43369450,223.8911,06/11.0/2026,2000,g 10.0,4.0
# From MPC191618
270P/Gehrels,e,2.9244,223.0101,209.9907,6.646730,0.0575164,0.47001341,272.0831,06/11.0/2026,2000,g  8.0,4.0
# From MPC191618
271P/vanHouten-Lemmon,e,6.8627,9.2051,36.6993,7.033768,0.0528350,0.39533019,248.3775,06/11.0/2026,2000,g 11.0,4.0
# From MPC191618
272P/NEAT,e,18.0828,109.4386,27.9174,4.462218,0.1045630,0.45570591,148.8823,06/11.0/2026,2000,g 16.0,2.0
# From MPC191618
274P/Tombaugh-Tenagra,e,15.8169,81.3112,38.5383,4.378898,0.1075615,0.44031926,163.8377,06/11.0/2026,2000,g 13.0,4.0
# From MPC191618
275P/Hermann,e,21.2491,348.7109,173.8259,5.804509,0.0704784,0.71411070,350.2116,06/11.0/2026,2000,g 15.0,4.0
# From MPC194203
276P/Vorobjov,e,14.7189,210.5536,200.2269,5.393293,0.0786906,0.27735096,42.8919,06/11.0/2026,2000,g 11.5,4.0
# From MPC191619
277P/LINEAR,e,16.7916,276.2596,152.4555,3.853504,0.1302928,0.50618177,258.8550,06/11.0/2026,2000,g 14.0,4.0
# From MPC191619
278P/McNaught,e,6.6578,10.4768,243.7201,3.607898,0.1438212,0.45470239,293.5675,06/11.0/2026,2000,g 14.0,4.0
# From MPC191619
279P/LaSagra,e,5.0559,346.0914,5.5379,3.565762,0.1463779,0.39993231,168.2590,06/11.0/2026,2000,g 14.0,4.0
# From MPC191619
280P/Larsen,e,11.7751,131.3740,104.5620,4.521858,0.1025011,0.41721321,106.7544,06/11.0/2026,2000,g 12.5,4.0
# From MPC191619
281P/MOSS,e,4.7172,87.1697,27.2182,4.889925,0.0911488,0.17383075,111.3240,06/11.0/2026,2000,g 11.0,4.0
# From MPC191619
283P/Spacewatch,e,14.4719,161.1289,22.1651,4.129735,0.1174413,0.48566391,203.7653,06/11.0/2026,2000,g 16.0,2.0
# From MPC191619
284P/McNaught,e,11.8512,144.2572,202.4177,3.680145,0.1396068,0.37406218,242.2359,06/11.0/2026,2000,g 13.0,4.0
# From MPC191619
286P/Christensen,e,17.0764,283.3736,23.1745,4.038776,0.1214310,0.44258893,180.5684,06/11.0/2026,2000,g 14.0,4.0
# From MPC191620
287P/Christensen,e,16.5878,138.0012,193.3853,4.234949,0.1130920,0.26771333,119.9145,06/11.0/2026,2000,g 13.5,4.0
# From MPC133426
288P/,e,3.2380,83.1078,280.2123,3.051469,0.1849016,0.19934428,289.1926,06/11.0/2026,2000,g 16.0,2.0
# From MPC191620
289P/Blanpain,e,5.8996,68.8942,9.8869,3.043913,0.1855905,0.68632878,78.4520,06/11.0/2026,2000,g 19.0,4.0
# From MPC191620
290P/Jager,e,20.0085,302.6365,181.9318,6.211514,0.0636660,0.62808277,287.5739,06/11.0/2026,2000,g 10.5,4.0
# From MPC191620
291P/NEAT,e,6.3085,237.6718,173.5914,4.536359,0.1020100,0.43343456,115.7190,06/11.0/2026,2000,g 13.0,4.0
# From MPC191620
292P/Li,e,24.3190,90.8948,319.6716,6.094429,0.0655095,0.58958588,294.6712,06/11.0/2026,2000,g 12.5,4.0
# From MPC191620
293P/Spacewatch,e,9.0617,78.3807,41.0241,3.636081,0.1421522,0.41969690,283.7902,06/11.0/2026,2000,g 14.5,4.0
# From MPC191620
294P/LINEAR,e,17.7435,309.5985,237.5946,3.191068,0.1729020,0.60107023,52.5246,06/11.0/2026,2000,g 15.5,4.0
# From MPC191620
295P/LINEAR,e,21.0880,7.3781,73.0733,5.296556,0.0808563,0.61756628,356.6218,06/11.0/2026,2000,g 12.0,4.0
# From MPC191620
296P/Garradd,e,25.3414,263.4600,350.6351,3.461568,0.1530364,0.48703703,316.7695,06/11.0/2026,2000,g 14.0,4.0
# From MPC191620
297P/Beshore,e,11.2741,89.9466,145.3562,3.565808,0.1463751,0.27688882,286.0345,06/11.0/2026,2000,g 15.0,4.0
# From MPC191621
298P/Christensen,e,7.8734,52.7814,100.6434,3.587839,0.1450289,0.38722278,305.0918,06/11.0/2026,2000,g 15.0,4.0
# From MPC191621
299P/Catalina-PANSTARRS,e,10.4681,271.5689,323.5480,4.387286,0.1072532,0.28110264,82.8224,06/11.0/2026,2000,g 11.5,4.0
# From MPC191621
300P/Catalina,e,5.6753,95.6028,222.9012,2.695258,0.2227428,0.69288031,257.6480,06/11.0/2026,2000,g 16.0,4.0
# From MPC191621
301P/LINEAR-NEAT,e,10.3255,351.1202,193.3491,5.755512,0.0713803,0.58665897,309.6373,06/11.0/2026,2000,g 13.0,4.0
# From MPEC 2026-GD5
302P/Lemmon-PANSTARRS,e,6.0356,121.7165,208.5762,4.264768,0.1119080,0.22890585,51.3571,06/11.0/2026,2000,g 12.5,4.0
# From MPC191621
303P/NEAT,e,7.0169,347.9061,357.0514,5.036415,0.0872011,0.50991049,9.6875,06/11.0/2026,2000,g 13.5,4.0
# From MPC191621
304P/Ory,e,2.6065,58.9002,335.3318,3.149095,0.1763703,0.60078311,14.9540,06/11.0/2026,2000,g 16.5,4.0
# From MPC191621
306P/LINEAR,e,8.3039,341.3075,1.0040,3.126878,0.1782533,0.59267133,55.8426,06/11.0/2026,2000,g 19.0,4.0
# From MPC191622
308P/Lagerkvist-Carsenty,e,4.8522,63.0378,333.8115,6.604063,0.0580747,0.36345922,234.9828,06/11.0/2026,2000,g 13.0,2.0
# From MPC191622
309P/LINEAR,e,17.0133,10.1359,49.9501,4.375591,0.1076835,0.61794038,86.6016,06/11.0/2026,2000,g 15.0,4.0
# From MPC191622
310P/Hill,e,13.1188,8.8847,31.5044,4.180528,0.1153074,0.42175726,110.9554,06/11.0/2026,2000,g 13.5,4.0
# From MPC191622
311P/PANSTARRS,e,4.9711,279.1670,144.3450,2.188825,0.3043599,0.11533078,271.1630,06/11.0/2026,2000,g 17.0,4.0
# From MPC191622
312P/NEAT,e,19.7457,144.6229,207.6640,3.473541,0.1522458,0.42649468,317.7515,06/11.0/2026,2000,g 16.0,4.0
# From MPC191622
313P/Gibbs,e,10.9811,105.9244,255.0061,3.162124,0.1752814,0.23417337,33.3382,06/11.0/2026,2000,g 15.0,4.0
# From MPC191622
314P/Montani,e,3.9911,267.6148,213.9279,7.248247,0.0505073,0.41882475,178.0018,06/11.0/2026,2000,g  9.5,4.0
# From MPC191622
315P/LONEOS,e,17.7396,68.6131,66.0075,4.933278,0.0899499,0.52231031,312.9125,06/11.0/2026,2000,g 11.0,4.0
# From MPC191622
316P/LONEOS-Christensen,e,9.8639,245.7645,186.0692,4.391405,0.1071023,0.15476865,66.6022,06/11.0/2026,2000,g 13.5,4.0
# From MPC191622
317P/WISE,e,11.9745,275.4698,334.8772,2.959608,0.1935766,0.57208019,43.1968,06/11.0/2026,2000,g 17.5,4.0
# From MPC191623
319P/Catalina-McNaught,e,15.0968,111.3635,203.5641,3.560484,0.1467035,0.66764642,224.9728,06/11.0/2026,2000,g 15.0,4.0
# From MPC191623
320P/McNaught,e,4.9012,295.9429,0.7581,3.096273,0.1809028,0.68501086,356.9574,06/11.0/2026,2000,g 20.5,4.0
# From MPC191623
